{"type":"FeatureCollection","properties":{"scope":"province-contains-prefectures","province":"澳门特别行政区","provinceGb":"156820000","source":"https://cloudcenter.tianditu.gov.cn/administrativeDivision/","sourceLevel":1},"features":[{"geometry":{"type":"MultiPolygon","coordinates":[[[[113.570039,22.118534],[113.550137,22.112289],[113.552,22.144685],[113.541852,22.163241],[113.573922,22.167167],[113.589531,22.147451],[113.570039,22.118534]]],[[[113.558312,22.187113],[113.533296,22.179406],[113.534653,22.207367],[113.534944,22.213525],[113.551304,22.215623],[113.558312,22.187113]]]]},"type":"Feature","properties":{"lng":113.538095,"name":"澳门特别行政区","gb":"156820000","lat":20.852266}}]}